{"distinct": [[{"donor_id": 3453, "city": null, "name": "6-30-08 cash deposits", "zip": null, "state": "il", "address": null}, {"donor_id": 3460, "city": "rockford", "name": "6/11/09 raffle", "zip": "61107", "state": "il", "address": "1900 reidfarm rd"}], [{"donor_id": 175714, "city": null, "name": "items under $150.00", "zip": null, "state": "il", "address": null}, {"donor_id": 208348, "city": "countryside", "name": "local no. 150 - i.u.o.e. local area pac", "zip": "60525", "state": "il", "address": "6200 joliet road"}]], "match": [[{"donor_id": 195571, "city": "waukegan", "name": "lake county contractors association pac", "zip": "60085", "state": "il", "address": "1312 washington st"}, {"donor_id": 195572, "city": "waukegan", "name": "lake county contractors association pac", "zip": "60085", "state": "il", "address": "1312 washington st."}], [{"donor_id": 638993, "city": "highland park", "name": "robert m. schrayer", "zip": "60035", "state": "il", "address": "1620 spruce ave"}, {"donor_id": 638994, "city": "highland park", "name": "robert m. schrayer", "zip": "60035", "state": "il", "address": "1620 spruce ave."}], [{"donor_id": 13868, "city": "northbrook", "name": "allstate insurance company pac", "zip": "60062", "state": "il", "address": "2775 sanders road ste. a4"}, {"donor_id": 13869, "city": "northbrook", "name": "allstate insurance company pac", "zip": "60062", "state": "il", "address": "2775 sanders road ste. a5"}], [{"donor_id": 63055, "city": "atlanta", "name": "cingular wireles employee pac", "zip": "30342", "state": "ga", "address": "5565 glenridge connector ste.1700"}, {"donor_id": 63065, "city": "atlanta", "name": "cingular wireless employee pac", "zip": "30342", "state": "ga", "address": "5565 glenridge connector ste.1700"}], [{"donor_id": 252638, "city": "chicago", "name": "peoples energy pac", "zip": "60601", "state": "il", "address": "130 e. randolph  23rd floor"}, {"donor_id": 252640, "city": "chicago", "name": "peoples energy pac", "zip": "60601", "state": "il", "address": "130 e. randolph dr"}], [{"donor_id": 162626, "city": "westmont", "name": "illinois federation of teachers c.o.p.e.", "zip": "60559", "state": "il", "address": "500 oakmont ln."}, {"donor_id": 162650, "city": "westmont", "name": "illinois federation of teachers cope", "zip": "60559", "state": "il", "address": "500 oakmont ln. po box 390"}], [{"donor_id": 69068, "city": "chicago", "name": "citizens for stephanie d. neely", "zip": "60615", "state": "il", "address": "4900 south woodlawn ave"}, {"donor_id": 69082, "city": "chicago", "name": "citizens for stephanie neely", "zip": "60615", "state": "il", "address": "4900 south woodlawn ave"}], [{"donor_id": 318198, "city": "park ridge", "name": "tooling & manufacturing assoc. pac", "zip": "60068", "state": "il", "address": "1177 s. dee rd."}, {"donor_id": 318226, "city": "park ridge", "name": "tooling & manufacturing association political action committee", "zip": "60068", "state": "il", "address": "1177 s. dee rd."}], [{"donor_id": 348551, "city": "huntley", "name": "alan hamilton,", "zip": "60142", "state": "il", "address": "11000 conley road"}, {"donor_id": 351675, "city": "huntley", "name": "allan hamilton,", "zip": "60142", "state": "il", "address": "11000 conley road"}], [{"donor_id": 10034, "city": "springfield", "name": "afscme illinois council no. 31", "zip": "62705-2328", "state": "il", "address": "615 s second street p o box 2328"}, {"donor_id": 10204, "city": "springfield", "name": "afscme illinois council no.31", "zip": "62705", "state": "il", "address": "615 s. second street"}], [{"donor_id": 56427, "city": "chicago", "name": "chicago & cook county building & construction trades council", "zip": "60606", "state": "il", "address": "150 n. wacker drive suite 1850"}, {"donor_id": 56758, "city": "chicago", "name": "chicago and cook county building", "zip": "60606", "state": "il", "address": "150 n. wacker drive suite 1850"}], [{"donor_id": 4767, "city": "chicago", "name": "a t & t illinois employee pac", "zip": "60606", "state": "il", "address": "225 w. randolph st. 27b"}, {"donor_id": 25716, "city": "chicago", "name": "at&t illinois employee pac", "zip": "60606", "state": "il", "address": "225 w. randolph st"}], [{"donor_id": 267196, "city": "crete", "name": "racing associates of illinois", "zip": "60417", "state": "il", "address": "26435 s. dixie hwy"}, {"donor_id": 267236, "city": "crete", "name": "racing associations of illinois", "zip": "60417", "state": "il", "address": "26435 s.  dixie highway"}], [{"donor_id": 165646, "city": "chicago", "name": "illinois medical anesthesia -  imapac", "zip": "60602", "state": "il", "address": "20 n. michigan ave. suite 700"}, {"donor_id": 165700, "city": "chicago", "name": "illinois medical anesthesia pac", "zip": "60602", "state": "il", "address": "20 n. michigan avenue ste 700"}], [{"donor_id": 665066, "city": "chicago", "name": "steven nemerovski", "zip": "60611-3633", "state": "il", "address": "one ibm plaza suite 3000"}, {"donor_id": 666168, "city": "chicago", "name": "steven h. nemerovski", "zip": "60611", "state": "il", "address": "one ibm plaza suite 3000"}], [{"donor_id": 282407, "city": "chicago", "name": "samuel v.p. banks attorney at law", "zip": "60601", "state": "il", "address": "221 n. lasalle 38th floor"}, {"donor_id": 650575, "city": "chicago", "name": "samuel v.p. banks", "zip": "60601", "state": "il", "address": "221 n. lasalle st. 38th fl."}], [{"donor_id": 322964, "city": "lincolnshire", "name": "uaw il pac", "zip": "60069", "state": "il", "address": "680 barclay blvd."}, {"donor_id": 325899, "city": "lincolnshire", "name": "united automobile aerospace & agricultural implement workers of americ", "zip": "60069", "state": "il", "address": "680 barclay blvd."}], [{"donor_id": 252518, "city": "chicago", "name": "peoples energy", "zip": "60601", "state": "il", "address": "130 e randolph dr."}, {"donor_id": 252523, "city": "chicago", "name": "peoples energy", "zip": "60601", "state": "il", "address": "130 e. randolph"}], [{"donor_id": 120035, "city": "chicago", "name": "freeborn & peters", "zip": "60606", "state": "il", "address": "311 s wacker drive suite 3000"}, {"donor_id": 120067, "city": "chicago", "name": "freeborn & peters", "zip": "60606", "state": "il", "address": "311 s. wacker drive #3000"}], [{"donor_id": 28342, "city": "chicago", "name": "aztec material", "zip": "60623", "state": "il", "address": "3624 w. 26th 2nd floor"}, {"donor_id": 28347, "city": "chicago", "name": "aztec material", "zip": "60623", "state": "il", "address": "3624 w. 26th st. 2nd flr."}], [{"donor_id": 253767, "city": "chicago", "name": "personal pac", "zip": "60602-1133", "state": "il", "address": "134 n la salle st ste 2040"}, {"donor_id": 253793, "city": "chicago", "name": "personal pac", "zip": "60602", "state": "il", "address": "134 n. lasalle street, suite 2040"}], [{"donor_id": 159731, "city": "springfield", "name": "illinois bankpac", "zip": "62701-1226", "state": "il", "address": "133 s 4th st ste 300"}, {"donor_id": 159783, "city": "springfield", "name": "illinois bankpac", "zip": "62701", "state": "il", "address": "133 s. fourth st, suite 300"}], [{"donor_id": 207466, "city": "chicago", "name": "local 399", "zip": "60661", "state": "il", "address": "736 w. jackson blvd."}, {"donor_id": 207472, "city": "chicago", "name": "local 399", "zip": "60661", "state": "il", "address": "763 w. jackson blvd"}], [{"donor_id": 206581, "city": "countryside", "name": "local #150 iuoe local area political action comm", "zip": "60525", "state": "il", "address": "6200 joliet rd"}, {"donor_id": 207235, "city": "countryside", "name": "local 150 - iuoe", "zip": "60525", "state": "il", "address": "6200 joliet road"}], [{"donor_id": 286, "city": null, "name": "11-5-02 cash deposit", "zip": null, "state": "il", "address": null}, {"donor_id": 263, "city": null, "name": "11-1-02 cash deposit", "zip": null, "state": "il", "address": null}], [{"donor_id": 3644, "city": null, "name": "7-11-02 cash deposit", "zip": null, "state": "il", "address": null}, {"donor_id": 3675, "city": null, "name": "7-31-09 cash deposit", "zip": null, "state": "il", "address": null}], [{"donor_id": 142771, "city": "chicago", "name": "heat & frost insulators local 17 pac fund", "zip": "60609", "state": "il", "address": "3850 racine ave."}, {"donor_id": 173522, "city": null, "name": "international heat & frost insulators local 17", "zip": null, "state": "il", "address": null}], [{"donor_id": 96427, "city": "oakbrook terrace", "name": "ditommaso", "zip": "60181", "state": "il", "address": "17 w 220 22nd st."}, {"donor_id": 96434, "city": "oakbrook terrace", "name": "ditommaso", "zip": "60181", "state": "il", "address": "17w220 22nd street suite 200"}], [{"donor_id": 131168, "city": "philadelphia", "name": "glaxosmithkline", "zip": "19101", "state": "pa", "address": "fpo825"}, {"donor_id": 131185, "city": "philadelphia", "name": "glaxosmithkline", "zip": "19101-3661", "state": "pa", "address": "p.o. box 13681"}], [{"donor_id": 175517, "city": "chatsworth", "name": "isra", "zip": "60921", "state": "il", "address": "po box 476"}, {"donor_id": 175532, "city": "chatsworth", "name": "isra political victory fund", "zip": "60921", "state": "il", "address": "p o box 476"}], [{"donor_id": 260547, "city": "chicago", "name": "power rogers & smith", "zip": "60601", "state": "il", "address": "35 w. wacker dr."}, {"donor_id": 260599, "city": "chicago", "name": "power rogers & smith p.c.", "zip": "60602-4212", "state": "il", "address": "70 w. madison st ste 5500"}], [{"donor_id": 80919, "city": "burr ridge", "name": "construction & general laborer's dist. council of chgo & vicinity", "zip": "60527", "state": "il", "address": "101 burr ridge parkway suite 300"}, {"donor_id": 81082, "city": "burr ridge", "name": "construction & general laborers' dist. council of chicago & vicinity", "zip": "60527", "state": "il", "address": "999 mcclintock dr ste 300"}]]}